{
    "links": {
        "self": "http://www.neowsapp.com/rest/v1/neo/3724214?api_key=iIulBulltgU6a56xZRHN4H3l9WmuAYTsLGpBGhQ2"
    },
    "id": "3724214",
    "neo_reference_id": "3724214",
    "name": "(2015 ON)",
    "designation": "2015 ON",
    "nasa_jpl_url": "http://ssd.jpl.nasa.gov/sbdb.cgi?sstr=3724214",
    "absolute_magnitude_h": 22.1,
    "estimated_diameter": {
        "kilometers": {
            "estimated_diameter_min": 0.1010543415,
            "estimated_diameter_max": 0.2259643771
        },
        "meters": {
            "estimated_diameter_min": 101.054341542,
            "estimated_diameter_max": 225.9643771094
        },
        "miles": {
            "estimated_diameter_min": 0.0627922373,
            "estimated_diameter_max": 0.140407711
        },
        "feet": {
            "estimated_diameter_min": 331.5431259047,
            "estimated_diameter_max": 741.3529669956
        }
    },
    "is_potentially_hazardous_asteroid": false,
    "close_approach_data": [
        {
            "close_approach_date": "2015-06-29",
            "close_approach_date_full": "2015-Jun-29 10:28",
            "epoch_date_close_approach": 1435573680000,
            "relative_velocity": {
                "kilometers_per_second": "13.4793199401",
                "kilometers_per_hour": "48525.5517843103",
                "miles_per_hour": "30151.8907739788"
            },
            "miss_distance": {
                "astronomical": "0.1058404844",
                "lunar": "41.1719484316",
                "kilometers": "15833511.026008228",
                "miles": "9838487.5348324264"
            },
            "orbiting_body": "Earth"
        }
    ],
    "orbital_data": {
        "orbit_id": "11",
        "orbit_determination_date": "2017-04-06 08:32:45",
        "first_observation_date": "2015-07-18",
        "last_observation_date": "2015-08-05",
        "data_arc_in_days": 18,
        "observations_used": 58,
        "orbit_uncertainty": "7",
        "minimum_orbit_intersection": ".00065604",
        "jupiter_tisserand_invariant": "3.359",
        "epoch_osculation": "2459000.5",
        "eccentricity": ".5671784540284139",
        "semi_major_axis": "2.269629440251559",
        "inclination": "11.47075883468898",
        "ascending_node_longitude": "263.6293559772515",
        "orbital_period": "1248.909189631687",
        "perihelion_distance": ".9823445231123055",
        "perihelion_argument": "335.1375987011876",
        "aphelion_distance": "3.556914357390813",
        "perihelion_time": "2458424.707907009255",
        "mean_anomaly": "165.9729588007901",
        "mean_motion": ".2882515422167458",
        "equinox": "J2000",
        "orbit_class": {
            "orbit_class_type": "APO",
            "orbit_class_description": "Near-Earth asteroid orbits which cross the Earth’s orbit similar to that of 1862 Apollo",
            "orbit_class_range": "a (semi-major axis) > 1.0 AU; q (perihelion) < 1.017 AU"
        }
    },
    "is_sentry_object": false
}